ONEWEB-0533             
1 55141U 23004B   24004.51006074  .00000422  00000+0  11368-2 0  9996
2 55141  87.9014 168.6069 0001350 100.0735 260.0546 13.12442309 50702
ONEWEB-0541             
1 55142U 23004C   24004.60400969  .00000617  00000+0  17053-2 0  9991
2 55142  87.8954 198.8448 0001382  83.0862 277.0423 13.11416874 48691
ONEWEB-0543             
1 55143U 23004D   24004.42852864  .00000086  00000+0  18520-3 0  9998
2 55143  87.9153 153.5871 0001723 113.5286 246.6027 13.18686291 51774
ONEWEB-0544             
1 55144U 23004E   24004.42222370  .00000124  00000+0  28209-3 0  9990
2 55144  87.9135 153.5741 0001660  95.7795 264.3527 13.18688497 51779
ONEWEB-0560             
1 55145U 23004F   24004.87116947 -.00000027  00000+0 -10176-3 0  9990
2 55145  87.9229 153.4213 0001947 108.7831 251.3513 13.18689605 51842
ONEWEB-0565             
1 55146U 23004G   24004.86482752  .00000062  00000+0  12333-3 0  9994
2 55146  87.9158 153.5112 0002016  75.7104 284.4252 13.18686658 51838
ONEWEB-0567             
1 55147U 23004H   24004.47912135 -.00000046  00000+0 -14925-3 0  9998
2 55147  87.9136 153.5419 0002119  98.7464 261.3909 13.18686234 51780
ONEWEB-0569             
1 55148U 23004J   24004.91667824 -.00754402  00000+0 -94652+0 0  9993
2 55148  87.6477 138.5134 0004421  91.0103 130.1827 13.67064000 52707
